{"type": "FeatureCollection", "features": [ {"type": "Feature", "properties": {"norad_id": 33153, "name": "INTELSAT 25 (IS-25)", "group": "intelsat", "lat": -0.5771735575444835, "lon": -82.46730963219301, "alt_km": 35765.08773736775, "timestamp": "2025-12-02T15:49:06.850682+00:00", "meta": {"OBJECT_NAME": "INTELSAT 25 (IS-25)", "OBJECT_ID": "2008-034A", "EPOCH": "2025-12-02T05:04:22.594368", "MEAN_MOTION": 1.00271751, "ECCENTRICITY": 0.00052726, "INCLINATION": 2.1982, "RA_OF_ASC_NODE": 82.7673, "ARG_OF_PERICENTER": 175.8921, "MEAN_ANOMALY": 217.2623, "EPHEMERIS_TYPE": 0, "CLASSIFICATION_TYPE": "U", "NORAD_CAT_ID": 33153, "ELEMENT_SET_NO": 999, "REV_AT_EPOCH": 6372, "BSTAR": 0, "MEAN_MOTION_DOT": -2.03e-06, "MEAN_MOTION_DDOT": 0}, "tle": {"line1": "1 33153U 08034A   25336.21137262 -.00000203  00000+0  00000+0 0  9997", "line2": "2 33153   2.1982  82.7673 0005272 175.8921 217.2623  1.00271751 63726"}}, "geometry": {"type": "Point", "coordinates": [-82.46730963219301, -0.5771735575444835]}}, {"type": "Feature", "properties": {"norad_id": 33376, "name": "GALAXY 19 (G-19)", "group": "intelsat", "lat": -0.03165459030644188, "lon": -148.04051340043762, "alt_km": 35777.30783375798, "timestamp": "2025-12-02T15:49:06.850693+00:00", "meta": {"OBJECT_NAME": "GALAXY 19 (G-19)", "OBJECT_ID": "2008-045A", "EPOCH": "2025-12-02T06:28:29.537184", "MEAN_MOTION": 1.00270185, "ECCENTRICITY": 0.00034373, "INCLINATION": 0.0188, "RA_OF_ASC_NODE": 350.5737, "ARG_OF_PERICENTER": 272.1238, "MEAN_ANOMALY": 168.7835, "EPHEMERIS_TYPE": 0, "CLASSIFICATION_TYPE": "U", "NORAD_CAT_ID": 33376, "ELEMENT_SET_NO": 999, "REV_AT_EPOCH": 6292, "BSTAR": 0, "MEAN_MOTION_DOT": 0, "MEAN_MOTION_DDOT": 0}, "tle": {"line1": "1 33376U 08045A   25336.26978631  .00000000  00000+0  00000+0 0  9998", "line2": "2 33376   0.0188 350.5737 0003437 272.1238 168.7835  1.00270185 62924"}}, "geometry": {"type": "Point", "coordinates": [-148.04051340043762, -0.03165459030644188]}}, {"type": "Feature", "properties": {"norad_id": 35493, "name": "FM-5", "group": "intelsat", "lat": -0.042680553037737656, "lon": -137.10494732688963, "alt_km": 35783.42911035905, "timestamp": "2025-12-02T15:49:06.850705+00:00", "meta": {"OBJECT_NAME": "FM-5", "OBJECT_ID": "2009-034A", "EPOCH": "2025-12-02T03:49:56.186112", "MEAN_MOTION": 1.00271359, "ECCENTRICITY": 0.00013625, "INCLINATION": 0.0257, "RA_OF_ASC_NODE": 281.1373, "ARG_OF_PERICENTER": 241.1286, "MEAN_ANOMALY": 240.3577, "EPHEMERIS_TYPE": 0, "CLASSIFICATION_TYPE": "U", "NORAD_CAT_ID": 35493, "ELEMENT_SET_NO": 999, "REV_AT_EPOCH": 4466, "BSTAR": 0, "MEAN_MOTION_DOT": -1.79e-06, "MEAN_MOTION_DDOT": 0}, "tle": {"line1": "1 35493U 09034A   25336.15967808 -.00000179  00000+0  00000+0 0  9999", "line2": "2 35493   0.0257 281.1373 0001362 241.1286 240.3577  1.00271359 44667"}}, "geometry": {"type": "Point", "coordinates": [-137.10494732688963, -0.042680553037737656]}}, {"type": "Feature", "properties": {"norad_id": 36097, "name": "INTELSAT 14 (IS-14)", "group": "intelsat", "lat": -0.02703668470076027, "lon": -95.97664644166773, "alt_km": 35775.23370900015, "timestamp": "2025-12-02T15:49:06.850717+00:00", "meta": {"OBJECT_NAME": "INTELSAT 14 (IS-14)", "OBJECT_ID": "2009-064A", "EPOCH": "2025-12-02T06:43:20.614944", "MEAN_MOTION": 1.00272173, "ECCENTRICITY": 0.00026067, "INCLINATION": 0.019, "RA_OF_ASC_NODE": 299.095, "ARG_OF_PERICENTER": 312.5685, "MEAN_ANOMALY": 235.5647, "EPHEMERIS_TYPE": 0, "CLASSIFICATION_TYPE": "U", "NORAD_CAT_ID": 36097, "ELEMENT_SET_NO": 999, "REV_AT_EPOCH": 5863, "BSTAR": 0, "MEAN_MOTION_DOT": -2.52e-06, "MEAN_MOTION_DDOT": 0}, "tle": {"line1": "1 36097U 09064A   25336.28009971 -.00000252  00000+0  00000+0 0  9997", "line2": "2 36097   0.0190 299.0950 0002606 312.5685 235.5647  1.00272173 58632"}}, "geometry": {"type": "Point", "coordinates": [-95.97664644166773, -0.02703668470076027]}}, {"type": "Feature", "properties": {"norad_id": 36106, "name": "INTELSAT 15 (IS-15)", "group": "intelsat", "lat": 0.03357496031693315, "lon": 34.19236346032054, "alt_km": 35794.452188648385, "timestamp": "2025-12-02T15:49:06.850744+00:00", "meta": {"OBJECT_NAME": "INTELSAT 15 (IS-15)", "OBJECT_ID": "2009-067A", "EPOCH": "2025-12-02T02:12:14.613984", "MEAN_MOTION": 1.00270671, "ECCENTRICITY": 0.00023712, "INCLINATION": 0.0103, "RA_OF_ASC_NODE": 303.6391, "ARG_OF_PERICENTER": 307.5381, "MEAN_ANOMALY": 298.2522, "EPHEMERIS_TYPE": 0, "CLASSIFICATION_TYPE": "U", "NORAD_CAT_ID": 36106, "ELEMENT_SET_NO": 999, "REV_AT_EPOCH": 3925, "BSTAR": 0, "MEAN_MOTION_DOT": -1.64e-06, "MEAN_MOTION_DDOT": 0}, "tle": {"line1": "1 36106U 09067A   25336.09183581 -.00000164  00000+0  00000+0 0  9992", "line2": "2 36106   0.0103 303.6391 0002371 307.5381 298.2522  1.00270671 39250"}}, "geometry": {"type": "Point", "coordinates": [34.19236346032054, 0.03357496031693315]}}, {"type": "Feature", "properties": {"norad_id": 36131, "name": "DIRECTV 12", "group": "intelsat", "lat": 0.00511554877588995, "lon": -153.7037371682091, "alt_km": 35786.71702052678, "timestamp": "2025-12-02T15:49:06.850758+00:00", "meta": {"OBJECT_NAME": "DIRECTV 12", "OBJECT_ID": "2009-075A", "EPOCH": "2025-12-02T06:26:52.192032", "MEAN_MOTION": 1.00269396, "ECCENTRICITY": 8.5e-07, "INCLINATION": 0.01, "RA_OF_ASC_NODE": 82.5402, "ARG_OF_PERICENTER": 107.3898, "MEAN_ANOMALY": 235.4515, "EPHEMERIS_TYPE": 0, "CLASSIFICATION_TYPE": "U", "NORAD_CAT_ID": 36131, "ELEMENT_SET_NO": 999, "REV_AT_EPOCH": 4457, "BSTAR": 0, "MEAN_MOTION_DOT": -8.2e-07, "MEAN_MOTION_DDOT": 0}, "tle": {"line1": "1 36131U 09075A   25336.26865963 -.00000082  00000+0  00000+0 0  9998", "line2": "2 36131   0.0100  82.5402 0000008 107.3898 235.4515  1.00269396 44573"}}, "geometry": {"type": "Point", "coordinates": [-153.7037371682091, 0.00511554877588995]}}, {"type": "Feature", "properties": {"norad_id": 36397, "name": "INTELSAT 16 (IS-16)", "group": "intelsat", "lat": -0.03733808663598857, "lon": -127.19478004188898, "alt_km": 35777.40265230663, "timestamp": "2025-12-02T15:49:06.850771+00:00", "meta": {"OBJECT_NAME": "INTELSAT 16 (IS-16)", "OBJECT_ID": "2010-006A", "EPOCH": "2025-12-02T06:34:28.962912", "MEAN_MOTION": 1.00270161, "ECCENTRICITY": 0.00023189, "INCLINATION": 0.0149, "RA_OF_ASC_NODE": 305.0427, "ARG_OF_PERICENTER": 308.7135, "MEAN_ANOMALY": 200.0513, "EPHEMERIS_TYPE": 0, "CLASSIFICATION_TYPE": "U", "NORAD_CAT_ID": 36397, "ELEMENT_SET_NO": 999, "REV_AT_EPOCH": 5768, "BSTAR": 0, "MEAN_MOTION_DOT": -2.24e-06, "MEAN_MOTION_DDOT": 0}, "tle": {"line1": "1 36397U 10006A   25336.27394633 -.00000224  00000+0  00000+0 0  9998", "line2": "2 36397   0.0149 305.0427 0002318 308.7135 200.0513  1.00270161 57681"}}, "geometry": {"type": "Point", "coordinates": [-127.19478004188898, -0.03733808663598857]}}, {"type": "Feature", "properties": {"norad_id": 37185, "name": "XM-5", "group": "intelsat", "lat": -0.08344691890836053, "lon": -166.15218046588922, "alt_km": 35781.04103590416, "timestamp": "2025-12-02T15:49:06.850783+00:00", "meta": {"OBJECT_NAME": "XM-5", "OBJECT_ID": "2010-053A", "EPOCH": "2025-12-02T04:40:32.377152", "MEAN_MOTION": 1.00272019, "ECCENTRICITY": 0.00016702, "INCLINATION": 0.0655, "RA_OF_ASC_NODE": 272.5794, "ARG_OF_PERICENTER": 236.5046, "MEAN_ANOMALY": 237.1767, "EPHEMERIS_TYPE": 0, "CLASSIFICATION_TYPE": "U", "NORAD_CAT_ID": 37185, "ELEMENT_SET_NO": 999, "REV_AT_EPOCH": 5550, "BSTAR": 0, "MEAN_MOTION_DOT": -2e-08, "MEAN_MOTION_DDOT": 0}, "tle": {"line1": "1 37185U 10053A   25336.19481918 -.00000002  00000+0  00000+0 0  9994", "line2": "2 37185   0.0655 272.5794 0001670 236.5046 237.1767  1.00272019 55508"}}, "geometry": {"type": "Point", "coordinates": [-166.15218046588922, -0.08344691890836053]}}, {"type": "Feature", "properties": {"norad_id": 37238, "name": "INTELSAT 17 (IS-17)", "group": "intelsat", "lat": 0.038008964304965594, "lon": 15.045610799173748, "alt_km": 35789.91116036219, "timestamp": "2025-12-02T15:49:06.850794+00:00", "meta": {"OBJECT_NAME": "INTELSAT 17 (IS-17)", "OBJECT_ID": "2010-065B", "EPOCH": "2025-12-02T03:49:10.527168", "MEAN_MOTION": 1.00272254, "ECCENTRICITY": 0.00026832, "INCLINATION": 0.0191, "RA_OF_ASC_NODE": 277.0295, "ARG_OF_PERICENTER": 347.6079, "MEAN_ANOMALY": 289.9288, "EPHEMERIS_TYPE": 0, "CLASSIFICATION_TYPE": "U", "NORAD_CAT_ID": 37238, "ELEMENT_SET_NO": 999, "REV_AT_EPOCH": 5127, "BSTAR": 0, "MEAN_MOTION_DOT": 1.9e-07, "MEAN_MOTION_DDOT": 0}, "tle": {"line1": "1 37238U 10065B   25336.15914962  .00000019  00000+0  00000+0 0  9999", "line2": "2 37238   0.0191 277.0295 0002683 347.6079 289.9288  1.00272254 51277"}}, "geometry": {"type": "Point", "coordinates": [15.045610799173748, 0.038008964304965594]}}, {"type": "Feature", "properties": {"norad_id": 37392, "name": "INTELSAT 28 (IS-28)", "group": "intelsat", "lat": -0.2880850552222812, "lon": -82.68484600498506, "alt_km": 35770.24767902764, "timestamp": "2025-12-02T15:49:06.850806+00:00", "meta": {"OBJECT_NAME": "INTELSAT 28 (IS-28)", "OBJECT_ID": "2011-016A", "EPOCH": "2025-12-02T03:21:35.668224", "MEAN_MOTION": 1.00269802, "ECCENTRICITY": 0.00041355, "INCLINATION": 1.2948, "RA_OF_ASC_NODE": 85.184, "ARG_OF_PERICENTER": 172.321, "MEAN_ANOMALY": 192.4347, "EPHEMERIS_TYPE": 0, "CLASSIFICATION_TYPE": "U", "NORAD_CAT_ID": 37392, "ELEMENT_SET_NO": 999, "REV_AT_EPOCH": 5131, "BSTAR": 0, "MEAN_MOTION_DOT": -2.04e-06, "MEAN_MOTION_DDOT": 0}, "tle": {"line1": "1 37392U 11016A   25336.13999616 -.00000204  00000+0  00000+0 0  9991", "line2": "2 37392   1.2948  85.1840 0004135 172.3210 192.4347  1.00269802 51313"}}, "geometry": {"type": "Point", "coordinates": [-82.68484600498506, -0.2880850552222812]}}]}